IRIDIUM 159             
1 43578U 18061K   25207.94539886  .00000024  00000+0  16831-5 0  9990
2 43578  86.3993 192.5971 0002491  88.4473 271.7008 14.34217956366766
IRIDIUM 180             
1 43922U 19002A   25207.87512390  .00000252  00000+0  82761-4 0  9999
2 43922  86.3996 129.6102 0002293  81.6954 278.4502 14.34217055342361
IRIDIUM 176             
1 43923U 19002B   25207.86554379  .00000995  00000+0  15395-3 0  9994
2 43923  86.6122 129.6036 0002039  72.1538 287.9902 14.72249842351385
IRIDIUM 168             
1 43924U 19002C   25207.86878423  .00000054  00000+0  12098-4 0  9998
2 43924  86.4000 129.6811 0002223  83.3792 276.7656 14.34217702342347
IRIDIUM 173             
1 43925U 19002D   25207.78633139  .00000215  00000+0  69877-4 0  9999
2 43925  86.3996 129.6177 0002253  80.1902 279.9548 14.34219388342311
IRIDIUM 169             
1 43926U 19002E   25207.93989723  .00000288  00000+0  87752-4 0  9992
2 43926  86.4276 161.1413 0001479  49.1557 310.9770 14.38607200343466
IRIDIUM 172             
1 43927U 19002F   25207.84975564  .00000241  00000+0  79052-4 0  9994
2 43927  86.3994 129.5983 0002499  82.4379 277.7101 14.34216231342337
IRIDIUM 175             
1 43928U 19002G   25207.92853883  .00000839  00000+0  12913-3 0  9998
2 43928  86.1471  79.8232 0001602 106.7922 253.3470 14.72247466351389
